{"type": "FeatureCollection", "features": [ {"type": "Feature", "properties": {"norad_id": 51444, "name": "CSG-2", "group": "resource", "lat": -81.8209631192505, "lon": -118.28676106076901, "alt_km": 630.9106359547841, "timestamp": "2025-12-11T20:41:14.745119+00:00", "meta": {"OBJECT_NAME": "CSG-2", "OBJECT_ID": "2022-008A", "EPOCH": "2025-12-11T14:36:08.303616", "MEAN_MOTION": 14.82162912, "ECCENTRICITY": 0.00015172, "INCLINATION": 97.8807, "RA_OF_ASC_NODE": 166.9485, "ARG_OF_PERICENTER": 84.4728, "MEAN_ANOMALY": 275.6658, "EPHEMERIS_TYPE": 0, "CLASSIFICATION_TYPE": "U", "NORAD_CAT_ID": 51444, "ELEMENT_SET_NO": 999, "REV_AT_EPOCH": 20880, "BSTAR": 0.00014828967, "MEAN_MOTION_DOT": 1.129e-05, "MEAN_MOTION_DDOT": 0}, "tle": {"line1": "1 51444U 22008A   25345.60842944  .00001129  00000+0  14829-3 0  9995", "line2": "2 51444  97.8807 166.9485 0001517  84.4728 275.6658 14.82162912208808"}}, "geometry": {"type": "Point", "coordinates": [-118.28676106076901, -81.8209631192505]}}, {"type": "Feature", "properties": {"norad_id": 52912, "name": "GAOFEN-12 03", "group": "resource", "lat": -16.756625383866982, "lon": 50.85123926238866, "alt_km": 636.564342972416, "timestamp": "2025-12-11T20:41:14.745129+00:00", "meta": {"OBJECT_NAME": "GAOFEN-12 03", "OBJECT_ID": "2022-069A", "EPOCH": "2025-12-11T14:55:54.325056", "MEAN_MOTION": 14.79604169, "ECCENTRICITY": 0.00021868, "INCLINATION": 97.8477, "RA_OF_ASC_NODE": 232.9971, "ARG_OF_PERICENTER": 63.071, "MEAN_ANOMALY": 297.0725, "EPHEMERIS_TYPE": 0, "CLASSIFICATION_TYPE": "U", "NORAD_CAT_ID": 52912, "ELEMENT_SET_NO": 999, "REV_AT_EPOCH": 18687, "BSTAR": 0.00023881952, "MEAN_MOTION_DOT": 1.739e-05, "MEAN_MOTION_DDOT": 0}, "tle": {"line1": "1 52912U 22069A   25345.62215654  .00001739  00000+0  23882-3 0  9993", "line2": "2 52912  97.8477 232.9971 0002186  63.0710 297.0725 14.79604169186879"}}, "geometry": {"type": "Point", "coordinates": [50.85123926238866, -16.756625383866982]}}, {"type": "Feature", "properties": {"norad_id": 54754, "name": "SWOT", "group": "resource", "lat": 60.137142214552114, "lon": -49.316273998368025, "alt_km": 887.0266060612385, "timestamp": "2025-12-11T20:41:14.745139+00:00", "meta": {"OBJECT_NAME": "SWOT", "OBJECT_ID": "2022-173A", "EPOCH": "2025-12-11T13:31:47.627616", "MEAN_MOTION": 14.00174451, "ECCENTRICITY": 3.318e-05, "INCLINATION": 77.6106, "RA_OF_ASC_NODE": 288.577, "ARG_OF_PERICENTER": 114.8739, "MEAN_ANOMALY": 245.2447, "EPHEMERIS_TYPE": 0, "CLASSIFICATION_TYPE": "U", "NORAD_CAT_ID": 54754, "ELEMENT_SET_NO": 999, "REV_AT_EPOCH": 15289, "BSTAR": 4.6567801e-05, "MEAN_MOTION_DOT": 6.6e-07, "MEAN_MOTION_DDOT": 0}, "tle": {"line1": "1 54754U 22173A   25345.56374569  .00000066  00000+0  46568-4 0  9998", "line2": "2 54754  77.6106 288.5770 0000331 114.8739 245.2447 14.00174451152891"}}, "geometry": {"type": "Point", "coordinates": [-49.316273998368025, 60.137142214552114]}}, {"type": "Feature", "properties": {"norad_id": 57654, "name": "GAOFEN-12 04", "group": "resource", "lat": 5.8972550681426705, "lon": -99.19047001230666, "alt_km": 632.1432871722154, "timestamp": "2025-12-11T20:41:14.745149+00:00", "meta": {"OBJECT_NAME": "GAOFEN-12 04", "OBJECT_ID": "2023-123A", "EPOCH": "2025-12-11T15:47:30.375744", "MEAN_MOTION": 14.79695645, "ECCENTRICITY": 0.00013375, "INCLINATION": 97.9115, "RA_OF_ASC_NODE": 261.4317, "ARG_OF_PERICENTER": 74.3383, "MEAN_ANOMALY": 285.7976, "EPHEMERIS_TYPE": 0, "CLASSIFICATION_TYPE": "U", "NORAD_CAT_ID": 57654, "ELEMENT_SET_NO": 999, "REV_AT_EPOCH": 12489, "BSTAR": 0.00035237978, "MEAN_MOTION_DOT": 2.595e-05, "MEAN_MOTION_DDOT": 0}, "tle": {"line1": "1 57654U 23123A   25345.65799046  .00002595  00000+0  35238-3 0  9997", "line2": "2 57654  97.9115 261.4317 0001337  74.3383 285.7976 14.79695645124891"}}, "geometry": {"type": "Point", "coordinates": [-99.19047001230666, 5.8972550681426705]}}, {"type": "Feature", "properties": {"norad_id": 59065, "name": "PARS 1", "group": "resource", "lat": -29.38327926959309, "lon": 132.54284089167024, "alt_km": 455.40191021185365, "timestamp": "2025-12-11T20:41:14.745159+00:00", "meta": {"OBJECT_NAME": "PARS 1", "OBJECT_ID": "2024-039Q", "EPOCH": "2025-12-11T15:06:22.809888", "MEAN_MOTION": 15.40933298, "ECCENTRICITY": 0.00126031, "INCLINATION": 97.4638, "RA_OF_ASC_NODE": 316.5389, "ARG_OF_PERICENTER": 75.5392, "MEAN_ANOMALY": 284.7252, "EPHEMERIS_TYPE": 0, "CLASSIFICATION_TYPE": "U", "NORAD_CAT_ID": 59065, "ELEMENT_SET_NO": 999, "REV_AT_EPOCH": 9971, "BSTAR": 0.00040191582, "MEAN_MOTION_DOT": 0.00016509, "MEAN_MOTION_DDOT": 0}, "tle": {"line1": "1 59065U 24039Q   25345.62943067  .00016509  00000+0  40192-3 0  9998", "line2": "2 59065  97.4638 316.5389 0012603  75.5392 284.7252 15.40933298 99712"}}, "geometry": {"type": "Point", "coordinates": [132.54284089167024, -29.38327926959309]}}, {"type": "Feature", "properties": {"norad_id": 59371, "name": "RESURS-P 4", "group": "resource", "lat": 19.26784900381325, "lon": -70.34204763850124, "alt_km": 468.99306603206605, "timestamp": "2025-12-11T20:41:14.745169+00:00", "meta": {"OBJECT_NAME": "RESURS-P 4", "OBJECT_ID": "2024-061A", "EPOCH": "2025-12-11T14:19:58.119744", "MEAN_MOTION": 15.32070543, "ECCENTRICITY": 0.00015981, "INCLINATION": 97.2542, "RA_OF_ASC_NODE": 291.9507, "ARG_OF_PERICENTER": 52.7864, "MEAN_ANOMALY": 307.3524, "EPHEMERIS_TYPE": 0, "CLASSIFICATION_TYPE": "U", "NORAD_CAT_ID": 59371, "ELEMENT_SET_NO": 999, "REV_AT_EPOCH": 9503, "BSTAR": 0.00019995041, "MEAN_MOTION_DOT": 6.115e-05, "MEAN_MOTION_DDOT": 0}, "tle": {"line1": "1 59371U 24061A   25345.59720046  .00006115  00000+0  19995-3 0  9998", "line2": "2 59371  97.2542 291.9507 0001598  52.7864 307.3524 15.32070543 95035"}}, "geometry": {"type": "Point", "coordinates": [-70.34204763850124, 19.26784900381325]}}, {"type": "Feature", "properties": {"norad_id": 59625, "name": "LEGION 1", "group": "resource", "lat": -65.17400864732706, "lon": 77.10178702745557, "alt_km": 521.3234375887514, "timestamp": "2025-12-11T20:41:14.745179+00:00", "meta": {"OBJECT_NAME": "LEGION 1", "OBJECT_ID": "2024-081A", "EPOCH": "2025-12-11T11:28:38.105184", "MEAN_MOTION": 15.16462595, "ECCENTRICITY": 0.00040474, "INCLINATION": 97.5212, "RA_OF_ASC_NODE": 60.1269, "ARG_OF_PERICENTER": 323.9586, "MEAN_ANOMALY": 36.1374, "EPHEMERIS_TYPE": 0, "CLASSIFICATION_TYPE": "U", "NORAD_CAT_ID": 59625, "ELEMENT_SET_NO": 999, "REV_AT_EPOCH": 8908, "BSTAR": 0.00046500125, "MEAN_MOTION_DOT": 8.988e-05, "MEAN_MOTION_DDOT": 0}, "tle": {"line1": "1 59625U 24081A   25345.47821881  .00008988  00000+0  46500-3 0  9990", "line2": "2 59625  97.5212  60.1269 0004047 323.9586  36.1374 15.16462595 89083"}}, "geometry": {"type": "Point", "coordinates": [77.10178702745557, -65.17400864732706]}}, {"type": "Feature", "properties": {"norad_id": 59626, "name": "LEGION 2", "group": "resource", "lat": 65.32263008402347, "lon": -102.69398045329025, "alt_km": 514.1362204636343, "timestamp": "2025-12-11T20:41:14.745189+00:00", "meta": {"OBJECT_NAME": "LEGION 2", "OBJECT_ID": "2024-081B", "EPOCH": "2025-12-11T15:26:14.891424", "MEAN_MOTION": 15.16473854, "ECCENTRICITY": 0.0005795, "INCLINATION": 97.5212, "RA_OF_ASC_NODE": 60.3778, "ARG_OF_PERICENTER": 298.0878, "MEAN_ANOMALY": 61.9769, "EPHEMERIS_TYPE": 0, "CLASSIFICATION_TYPE": "U", "NORAD_CAT_ID": 59626, "ELEMENT_SET_NO": 999, "REV_AT_EPOCH": 8911, "BSTAR": 0.00040970056, "MEAN_MOTION_DOT": 7.914e-05, "MEAN_MOTION_DDOT": 0}, "tle": {"line1": "1 59626U 24081B   25345.64322791  .00007914  00000+0  40970-3 0  9999", "line2": "2 59626  97.5212  60.3778 0005795 298.0878  61.9769 15.16473854 89116"}}, "geometry": {"type": "Point", "coordinates": [-102.69398045329025, 65.32263008402347]}}, {"type": "Feature", "properties": {"norad_id": 60182, "name": "ALOS-4 (DAICHI-4)", "group": "resource", "lat": -66.26304682766342, "lon": -117.74070886870116, "alt_km": 639.0541172195008, "timestamp": "2025-12-11T20:41:14.745199+00:00", "meta": {"OBJECT_NAME": "ALOS-4 (DAICHI-4)", "OBJECT_ID": "2024-123A", "EPOCH": "2025-12-10T20:50:51.532800", "MEAN_MOTION": 14.79478132, "ECCENTRICITY": 0.0001419, "INCLINATION": 97.9225, "RA_OF_ASC_NODE": 79.7424, "ARG_OF_PERICENTER": 101.2045, "MEAN_ANOMALY": 258.9326, "EPHEMERIS_TYPE": 0, "CLASSIFICATION_TYPE": "U", "NORAD_CAT_ID": 60182, "ELEMENT_SET_NO": 999, "REV_AT_EPOCH": 7803, "BSTAR": 0.00039567, "MEAN_MOTION_DOT": 2.905e-05, "MEAN_MOTION_DDOT": 0}, "tle": {"line1": "1 60182U 24123A   25344.86865200  .00002905  00000+0  39567-3 0  9990", "line2": "2 60182  97.9225  79.7424 0001419 101.2045 258.9326 14.79478132 78033"}}, "geometry": {"type": "Point", "coordinates": [-117.74070886870116, -66.26304682766342]}}, {"type": "Feature", "properties": {"norad_id": 60452, "name": "LEGION 3", "group": "resource", "lat": 16.623306646564508, "lon": 117.45597387389391, "alt_km": 508.2877548970164, "timestamp": "2025-12-11T20:41:14.745209+00:00", "meta": {"OBJECT_NAME": "LEGION 3", "OBJECT_ID": "2024-146A", "EPOCH": "2025-12-11T15:15:22.884192", "MEAN_MOTION": 15.15742318, "ECCENTRICITY": 0.00147614, "INCLINATION": 45.0019, "RA_OF_ASC_NODE": 316.0518, "ARG_OF_PERICENTER": 192.7659, "MEAN_ANOMALY": 167.2847, "EPHEMERIS_TYPE": 0, "CLASSIFICATION_TYPE": "U", "NORAD_CAT_ID": 60452, "ELEMENT_SET_NO": 999, "REV_AT_EPOCH": 7356, "BSTAR": 0.00041240792, "MEAN_MOTION_DOT": 7.76e-05, "MEAN_MOTION_DDOT": 0}, "tle": {"line1": "1 60452U 24146A   25345.63568153  .00007760  00000+0  41241-3 0  9994", "line2": "2 60452  45.0019 316.0518 0014761 192.7659 167.2847 15.15742318 73563"}}, "geometry": {"type": "Point", "coordinates": [117.45597387389391, 16.623306646564508]}}]}